{"type":"FeatureCollection","name":"ARTCC Boundaries","source":"FAA NASR ARB subscriber file, effective 2026/07/09 (.tmp\\nasr\\arb.zip); built by tools/build-artcc-boundaries.py","crs":{"type":"name","properties":{"name":"urn:ogc:def:crs:OGC:1.3:CRS84"}},"features":[{"type":"Feature","properties":{"id":"ZAB","name":"ALBUQUERQUE","strata":["LOW","HIGH"]},"geometry":{"type":"MultiPolygon","coordinates":[[[[-111.841667,35.766667],[-110.233333,35.7],[-108.216667,36.033333],[-107.466667,36.2],[-106.083333,36.716667],[-105.0,36.716667],[-102.55,37.5],[-101.75,36.5],[-100.0,35.829167],[-100.0,35.333333],[-100.316667,34.866667],[-100.75,34.466667],[-102.0,34.6],[-102.325,34.55],[-102.8,34.316667],[-103.366667,33.775],[-103.691667,33.402778],[-103.8,33.383333],[-103.8,33.0],[-103.933333,32.466667],[-103.8,32.033333],[-103.333333,31.65],[-102.15,31.283333],[-102.558333,29.766667],[-102.675,29.725],[-102.840278,29.361111],[-102.883333,29.358333],[-102.866667,29.216667],[-102.983333,29.183333],[-103.15,28.95],[-103.285556,28.976667],[-103.45,29.066667],[-103.55,29.15],[-103.716667,29.180556],[-103.783333,29.265278],[-104.0,29.305556],[-104.15,29.4],[-104.216667,29.483333],[-104.35,29.533333],[-104.516667,29.65],[-104.7,30.0],[-104.683333,30.15],[-104.833333,30.366667],[-104.983333,30.683333],[-105.316667,30.833333],[-105.55,31.0],[-105.966667,31.333333],[-106.2,31.466667],[-106.383333,31.733333],[-106.5,31.75],[-106.533333,31.783333],[-108.2,31.783333],[-108.2,31.333333],[-111.083333,31.333333],[-112.0,31.633333],[-113.508333,32.1],[-113.512769,32.116228],[-113.684722,32.7375],[-114.0,32.683333],[-114.0,33.4],[-114.0,34.666667],[-113.7,34.866667],[-113.616667,34.916667],[-112.927778,35.255556],[-112.666667,35.383333],[-112.153056,35.396667],[-112.0,35.4],[-111.841667,35.766667]]],[[[-111.841667,35.766667],[-110.233333,35.7],[-108.216667,36.033333],[-107.466667,36.2],[-106.083333,36.716667],[-105.0,36.716667],[-102.55,37.5],[-101.75,36.5],[-100.0,35.829167],[-100.0,35.333333],[-100.316667,34.866667],[-100.75,34.466667],[-102.0,34.6],[-102.325,34.55],[-102.8,34.316667],[-103.366667,33.775],[-103.691667,33.402778],[-103.8,33.383333],[-103.8,33.0],[-103.933333,32.466667],[-103.8,32.033333],[-103.333333,31.65],[-102.15,31.283333],[-102.558333,29.766667],[-102.675,29.725],[-102.840278,29.361111],[-102.883333,29.358333],[-102.866667,29.216667],[-102.983333,29.183333],[-103.15,28.95],[-103.285556,28.976667],[-103.45,29.066667],[-103.55,29.15],[-103.716667,29.180556],[-103.783333,29.265278],[-104.0,29.305556],[-104.15,29.4],[-104.216667,29.483333],[-104.35,29.533333],[-104.516667,29.65],[-104.7,30.0],[-104.683333,30.15],[-104.833333,30.366667],[-104.983333,30.683333],[-105.316667,30.833333],[-105.55,31.0],[-105.966667,31.333333],[-106.2,31.466667],[-106.383333,31.733333],[-106.5,31.75],[-106.533333,31.783333],[-108.2,31.783333],[-108.2,31.333333],[-111.083333,31.333333],[-112.0,31.633333],[-113.508333,32.1],[-113.512769,32.116228],[-113.684722,32.7375],[-114.0,32.683333],[-114.0,33.4],[-114.0,34.666667],[-113.7,34.866667],[-113.616667,34.916667],[-112.927778,35.255556],[-112.666667,35.383333],[-112.153056,35.396667],[-112.0,35.4],[-111.841667,35.766667]]]]}},{"type":"Feature","properties":{"id":"ZAK","name":"OAKLAND OCEANIC ARTCC","strata":["UNLIMITED"]},"geometry":{"type":"MultiPolygon","coordinates":[[[[130.0,21.0],[130.0,21.0],[151.0,21.0],[155.0,21.0],[155.0,23.5275],[155.0,27.0],[161.080556,27.0],[165.0,27.0],[165.0,29.0],[165.0,43.0],[165.0,43.0],[162.916667,45.7],[162.916667,45.7],[-176.566667,50.133333],[-176.566667,50.133333],[-167.816667,51.4],[-167.816667,51.4],[-160.0,53.5],[-160.0,53.5],[-153.0,56.0],[-153.0,56.0],[-151.75,56.761667],[-137.0,53.3675],[-151.75,56.761667],[-135.0,52.716667],[-137.0,53.3675],[-133.75,51.0],[-135.0,52.716667],[-128.0,48.333333],[-133.75,51.0],[-127.925,48.166667],[-128.0,48.333333],[-126.5,45.0],[-127.925,48.166667],[-126.9,40.983333],[-126.5,45.0],[-127.0,40.833333],[-126.9,40.983333],[-127.0,37.506389],[-127.0,40.833333],[-126.933333,36.461944],[-127.0,37.506389],[-125.833333,35.5],[-126.933333,36.461944],[-125.833333,35.5],[-124.2,36.0],[-123.25,34.5],[-124.2,36.0],[-120.833333,30.75],[-123.25,34.5],[-120.0,30.0],[-120.833333,30.75],[-120.0,3.5],[-120.0,30.0],[-145.0,3.5],[-120.0,3.5],[-155.0,-5.0],[-145.0,3.5],[-180.0,-5.0],[-155.0,-5.0],[-180.0,-5.0],[-180.0,3.5],[-180.0,3.5],[160.0,3.5],[160.0,0.0],[160.0,3.5],[141.0,0.0],[160.0,0.0],[141.0,0.0],[141.0,3.5],[133.0,3.5],[141.0,3.5],[133.0,3.5],[130.0,7.0],[130.0,7.0],[130.0,21.0]]]]}},{"type":"Feature","properties":{"id":"ZAN","name":"ANCHORAGE","strata":["LOW","HIGH"]},"geometry":{"type":"MultiPolygon","coordinates":[[[[-141.0,90.0],[-141.0,89.991831],[-141.0,72.0],[-141.002009,62.00079],[-139.182183,60.348217],[-139.066667,60.35],[-139.058056,60.327222],[-139.186111,60.0925],[-139.044444,59.993889],[-138.705833,59.911111],[-138.666667,59.808333],[-138.623611,59.771667],[-136.236881,59.529797],[-134.990556,59.389444],[-135.033611,59.350278],[-134.9475,59.278333],[-134.6925,59.251389],[-134.673889,59.193333],[-134.559722,59.128889],[-134.483333,59.133333],[-134.383333,59.041667],[-134.401667,58.979722],[-134.316667,58.9625],[-134.332222,58.926944],[-134.238333,58.853889],[-133.837778,58.728889],[-133.361111,58.424444],[-133.439167,58.3825],[-133.169722,58.159722],[-133.078056,58.0075],[-132.879444,57.849722],[-132.228889,57.214167],[-132.366667,57.088889],[-132.042222,57.046389],[-132.066111,57.0],[-132.065986,56.999989],[-131.872222,56.808056],[-131.896667,56.7525],[-131.861667,56.710833],[-131.830833,56.600833],[-131.583333,56.614444],[-131.4725,56.553333],[-131.083333,56.408333],[-130.783333,56.366667],[-130.633333,56.275],[-130.469167,56.245],[-130.417222,56.140833],[-130.388333,56.138889],[-130.244444,56.098056],[-130.107222,56.124444],[-130.010556,56.0],[-130.017222,55.925],[-130.008056,55.914722],[-130.010556,55.903056],[-130.001667,55.898889],[-130.086111,55.813889],[-130.145556,55.770556],[-130.150833,55.727222],[-130.143333,55.711944],[-130.131944,55.695833],[-130.104167,55.6725],[-130.1025,55.648889],[-130.106403,55.635417],[-130.115278,55.619444],[-130.116111,55.609444],[-130.122222,55.594167],[-130.12,55.551667],[-130.109444,55.542222],[-130.089167,55.512222],[-130.081111,55.488889],[-130.040556,55.454722],[-130.030278,55.432778],[-130.025278,55.341667],[-129.975556,55.294444],[-129.977778,55.281944],[-130.100278,55.191667],[-130.142222,55.147222],[-130.1875,55.066667],[-130.303889,54.935556],[-130.490556,54.821667],[-130.538333,54.796667],[-130.642222,54.770833],[-130.65,54.7625],[-130.608333,54.708333],[-131.8,54.491667],[-132.833333,54.583333],[-134.0,54.108333],[-135.456939,54.113508],[-136.0,54.0],[-137.0,53.3675],[-151.75,56.761667],[-153.0,56.0],[-160.0,53.5],[-167.816667,51.4],[-176.566667,50.133333],[162.916667,45.7],[159.007819,50.075426],[169.0,54.0],[169.993601,54.670431],[180.0,60.0],[-177.751667,61.336667],[-172.2,64.05],[-168.973333,65.0],[-168.973333,68.003392],[-168.973333,72.0],[-168.973333,72.170578],[-168.973333,73.463931],[-168.973333,76.324502],[-168.973333,87.633333],[-141.0,90.0]]],[[[-141.0,90.0],[-141.0,89.991831],[-141.0,72.0],[-141.002009,62.00079],[-139.182183,60.348217],[-139.066667,60.35],[-139.058056,60.327222],[-139.186111,60.0925],[-139.044444,59.993889],[-138.705833,59.911111],[-138.666667,59.808333],[-138.623611,59.771667],[-136.236881,59.529797],[-134.990556,59.389444],[-135.033611,59.350278],[-134.9475,59.278333],[-134.6925,59.251389],[-134.673889,59.193333],[-134.559722,59.128889],[-134.483333,59.133333],[-134.383333,59.041667],[-134.401667,58.979722],[-134.316667,58.9625],[-134.332222,58.926944],[-134.238333,58.853889],[-133.837778,58.728889],[-133.361111,58.424444],[-133.439167,58.3825],[-133.169722,58.159722],[-133.078056,58.0075],[-132.879444,57.849722],[-132.228889,57.214167],[-132.366667,57.088889],[-132.042222,57.046389],[-132.066111,57.0],[-132.065986,56.999989],[-131.872222,56.808056],[-131.896667,56.7525],[-131.861667,56.710833],[-131.830833,56.600833],[-131.583333,56.614444],[-131.4725,56.553333],[-131.083333,56.408333],[-130.783333,56.366667],[-130.633333,56.275],[-130.469167,56.245],[-130.417222,56.140833],[-130.388333,56.138889],[-130.244444,56.098056],[-130.107222,56.124444],[-130.010556,56.0],[-130.017222,55.925],[-130.008056,55.914722],[-130.010556,55.903056],[-130.001667,55.898889],[-130.086111,55.813889],[-130.145556,55.770556],[-130.150833,55.727222],[-130.143333,55.711944],[-130.131944,55.695833],[-130.104167,55.6725],[-130.1025,55.648889],[-130.106403,55.635417],[-130.115278,55.619444],[-130.116111,55.609444],[-130.122222,55.594167],[-130.12,55.551667],[-130.109444,55.542222],[-130.089167,55.512222],[-130.081111,55.488889],[-130.040556,55.454722],[-130.030278,55.432778],[-130.025278,55.341667],[-129.975556,55.294444],[-129.977778,55.281944],[-130.100278,55.191667],[-130.142222,55.147222],[-130.1875,55.066667],[-130.303889,54.935556],[-130.490556,54.821667],[-130.538333,54.796667],[-130.642222,54.770833],[-130.65,54.7625],[-130.608333,54.708333],[-131.8,54.491667],[-132.833333,54.583333],[-134.0,54.108333],[-135.456939,54.113508],[-136.0,54.0],[-137.0,53.3675],[-151.75,56.761667],[-153.0,56.0],[-160.0,53.5],[-167.816667,51.4],[-176.566667,50.133333],[162.916667,45.7],[159.007819,50.075426],[169.0,54.0],[169.993601,54.670431],[180.0,60.0],[-177.751667,61.336667],[-172.2,64.05],[-168.973333,65.0],[-168.973333,68.003392],[-168.973333,72.0],[-168.973333,72.170578],[-168.973333,73.463931],[-168.973333,76.324502],[-168.973333,87.633333],[-141.0,90.0]]]]}},{"type":"Feature","properties":{"id":"ZAP","name":"ANCHORAGE OCEANIC","strata":["UNLIMITED"]},"geometry":{"type":"MultiPolygon","coordinates":[[[[159.007819,50.075426],[-141.0,90.0],[169.0,54.0],[-141.0,89.991831],[169.993601,54.670431],[-141.0,72.0],[170.0,51.5],[-158.0,72.0],[173.733333,51.083333],[-168.973333,68.003392],[-176.566667,50.133333],[-168.973333,72.0],[162.916667,45.7],[-168.973333,72.170578],[-168.973333,73.463931],[-168.973333,76.324502],[-168.973333,87.633333],[159.007819,50.075426]]]]}},{"type":"Feature","properties":{"id":"ZAU","name":"CHICAGO","strata":["LOW","HIGH"]},"geometry":{"type":"MultiPolygon","coordinates":[[[[-93.466667,41.666667],[-93.05,42.666667],[-93.0,42.783333],[-91.725,42.725],[-91.083333,43.366667],[-90.829167,43.618056],[-90.291667,44.154167],[-89.5875,44.154167],[-89.076111,44.225],[-88.754167,44.159444],[-88.466667,44.1],[-87.541667,43.966667],[-87.169444,43.691667],[-84.963611,43.586667],[-85.0,43.5],[-85.0,41.85],[-85.108333,41.383333],[-84.716667,41.283333],[-84.7,40.958333],[-84.7,40.908333],[-84.684444,40.746389],[-84.991944,40.606944],[-85.414444,40.663333],[-85.504167,40.558333],[-85.955556,40.119444],[-86.1,40.0],[-86.95,40.0],[-88.25,40.0],[-89.75,40.0],[-91.65,40.783333],[-91.741667,40.763889],[-93.491667,40.525],[-93.6,41.166667],[-93.508333,41.433333],[-93.466667,41.666667]]],[[[-93.466667,41.666667],[-93.05,42.666667],[-93.0,42.783333],[-91.725,42.725],[-91.083333,43.366667],[-90.829167,43.618056],[-90.291667,44.154167],[-89.5875,44.154167],[-89.076111,44.225],[-88.754167,44.159444],[-88.466667,44.1],[-87.541667,43.966667],[-87.169444,43.691667],[-84.963611,43.586667],[-85.0,43.5],[-85.0,42.0],[-84.766667,41.858333],[-84.716667,41.283333],[-84.7,40.958333],[-84.7,40.908333],[-84.683333,40.775],[-84.683333,40.666667],[-85.525,40.354167],[-86.1,40.0],[-88.25,40.0],[-89.75,40.0],[-91.65,40.783333],[-91.741667,40.763889],[-93.491667,40.525],[-93.6,41.166667],[-93.508333,41.433333],[-93.466667,41.666667]]]]}},{"type":"Feature","properties":{"id":"ZBW","name":"BOSTON","strata":["LOW","HIGH"]},"geometry":{"type":"MultiPolygon","coordinates":[[[[-76.796667,43.631111],[-76.416667,44.104167],[-76.333333,44.166667],[-76.283333,44.204167],[-76.233333,44.204167],[-76.183333,44.233333],[-76.133333,44.291667],[-76.066667,44.322222],[-76.0,44.35],[-75.95,44.347222],[-75.816667,44.445833],[-75.766667,44.5125],[-75.5,44.716667],[-75.7,44.666667],[-75.75,44.816667],[-74.883333,44.966667],[-74.966667,45.069167],[-74.784444,45.143056],[-74.566667,45.183333],[-74.25,45.0],[-71.483333,45.016667],[-71.336111,45.283333],[-71.0,45.316667],[-70.502778,45.686111],[-70.25,45.908333],[-70.208333,46.308333],[-70.058333,46.416667],[-70.0,46.75],[-69.216667,47.45],[-68.566667,47.2875],[-68.532222,47.326667],[-68.481944,47.363889],[-68.426667,47.397778],[-68.3675,47.428333],[-68.304444,47.455278],[-68.238333,47.478333],[-68.169167,47.4975],[-68.097778,47.512222],[-68.025,47.522778],[-67.950833,47.528611],[-67.876389,47.530278],[-67.801944,47.5275],[-67.728056,47.520278],[-67.655556,47.508611],[-67.584722,47.492778],[-67.516389,47.472778],[-67.450833,47.448611],[-67.388889,47.420833],[-67.330556,47.389444],[-67.276944,47.354444],[-67.227778,47.316667],[-67.183611,47.275833],[-67.145,47.232778],[-67.112222,47.1875],[-67.085278,47.140556],[-67.064722,47.091944],[-67.050278,47.0425],[-67.042222,46.992222],[-67.040556,46.941667],[-67.045556,46.891389],[-67.056667,46.841389],[-67.074167,46.792222],[-67.097778,46.744444],[-67.1275,46.698333],[-67.170278,46.645278],[-67.203333,46.611944],[-67.249167,46.5725],[-67.3,46.536111],[-67.216667,46.2],[-67.216667,46.143056],[-67.583333,45.825],[-67.806944,45.783333],[-67.775,45.625],[-67.0,44.933333],[-67.0,41.866667],[-67.0,41.616667],[-69.0,41.0],[-69.341667,40.925],[-70.879444,40.576667],[-72.5,40.072222],[-72.988889,40.291667],[-73.236111,40.398611],[-73.254167,40.409722],[-73.4,40.3875],[-73.636111,40.331944],[-73.291667,40.801389],[-73.377778,40.858333],[-73.859722,40.858333],[-73.866667,41.245833],[-74.006111,41.294444],[-74.084722,41.319444],[-74.075,41.341667],[-74.345833,41.483333],[-74.958333,41.741667],[-75.058333,41.869444],[-75.341667,41.988889],[-76.052778,42.311944],[-75.969444,42.695833],[-76.013889,42.8625],[-76.088889,42.9375],[-76.483333,42.941667],[-76.666667,42.883333],[-76.733333,43.016667],[-76.763889,43.066667],[-76.775,43.329167],[-76.778333,43.354444],[-76.780556,43.4],[-76.796667,43.631111]]],[[[-76.796667,43.631111],[-76.416667,44.104167],[-76.333333,44.166667],[-76.283333,44.204167],[-76.233333,44.204167],[-76.183333,44.233333],[-76.133333,44.291667],[-76.066667,44.322222],[-76.0,44.35],[-75.95,44.347222],[-75.816667,44.445833],[-75.766667,44.5125],[-75.5,44.716667],[-75.7,44.666667],[-75.75,44.816667],[-74.883333,44.966667],[-74.966667,45.069167],[-74.784444,45.143056],[-74.566667,45.183333],[-74.25,45.0],[-71.483333,45.016667],[-71.336111,45.283333],[-71.0,45.316667],[-70.502778,45.686111],[-70.25,45.908333],[-70.208333,46.308333],[-70.058333,46.416667],[-70.0,46.75],[-69.216667,47.45],[-68.566667,47.2875],[-68.532222,47.326667],[-68.481944,47.363889],[-68.426667,47.397778],[-68.3675,47.428333],[-68.304444,47.455278],[-68.238333,47.478333],[-68.169167,47.4975],[-68.097778,47.512222],[-68.025,47.522778],[-67.950833,47.528611],[-67.876389,47.530278],[-67.801944,47.5275],[-67.728056,47.520278],[-67.655556,47.508611],[-67.584722,47.492778],[-67.516389,47.472778],[-67.450833,47.448611],[-67.388889,47.420833],[-67.330556,47.389444],[-67.276944,47.354444],[-67.227778,47.316667],[-67.183611,47.275833],[-67.145,47.232778],[-67.112222,47.1875],[-67.085278,47.140556],[-67.064722,47.091944],[-67.050278,47.0425],[-67.042222,46.992222],[-67.040556,46.941667],[-67.045556,46.891389],[-67.056667,46.841389],[-67.074167,46.792222],[-67.097778,46.744444],[-67.1275,46.698333],[-67.170278,46.645278],[-67.203333,46.611944],[-67.249167,46.5725],[-67.3,46.536111],[-67.216667,46.2],[-67.216667,46.143056],[-67.583333,45.825],[-67.806944,45.783333],[-67.775,45.625],[-67.0,44.933333],[-67.0,41.866667],[-67.0,41.616667],[-69.0,41.0],[-69.341667,40.925],[-70.879444,40.576667],[-72.5,40.072222],[-72.781944,40.198611],[-73.008333,39.994444],[-73.15,39.733333],[-73.166667,39.683333],[-73.283333,39.733333],[-73.729167,39.933333],[-73.698611,40.238889],[-73.291667,40.801389],[-73.377778,40.858333],[-73.859722,40.858333],[-73.866667,41.245833],[-74.444444,41.4375],[-74.766667,41.733333],[-74.808333,41.758333],[-74.908333,41.801389],[-75.058333,41.869444],[-75.341667,41.988889],[-76.016667,42.283333],[-76.802778,42.608333],[-76.697222,42.727778],[-76.689167,42.768611],[-76.666667,42.883333],[-76.733333,43.016667],[-76.763889,43.066667],[-76.775,43.329167],[-76.778333,43.354444],[-76.780556,43.4],[-76.796667,43.631111]]]]}},{"type":"Feature","properties":{"id":"ZDC","name":"WASHINGTON","strata":["LOW","HIGH"]},"geometry":{"type":"MultiPolygon","coordinates":[[[[-80.4,39.166667],[-79.894444,39.173611],[-79.543056,39.370833],[-77.933333,39.85],[-77.840278,39.855556],[-77.355,39.875],[-77.356667,39.781667],[-77.358333,39.51],[-76.855556,39.385],[-76.347222,39.391667],[-75.65,39.85],[-75.625,39.861111],[-75.118333,40.216667],[-75.119722,40.2175],[-75.096389,40.222778],[-75.075833,40.230556],[-75.0575,40.239444],[-75.036667,40.255],[-75.016389,40.29],[-75.016667,40.290278],[-74.956944,40.341667],[-74.676389,40.258333],[-74.515278,40.308333],[-74.333333,40.25],[-74.452778,40.144444],[-74.684722,39.983333],[-74.804167,39.9],[-74.94,39.751667],[-74.911111,39.709722],[-74.8,39.652778],[-74.455556,39.655833],[-74.498611,39.593056],[-74.194444,39.579167],[-73.658333,39.034722],[-73.841667,38.766667],[-73.983333,38.541667],[-74.599722,37.081667],[-74.599722,36.787778],[-74.936944,35.496944],[-75.19,35.308056],[-75.683889,34.600278],[-76.779444,32.967778],[-78.75,34.444444],[-79.728056,34.713333],[-79.916667,34.85],[-80.147222,34.855556],[-80.0,35.108333],[-79.804167,35.383333],[-79.744444,36.088889],[-79.95,36.154167],[-80.633333,37.331944],[-80.745833,37.304167],[-80.841667,37.466667],[-80.716667,38.041667],[-80.566667,38.766667],[-80.4,39.166667]]],[[[-80.4,39.166667],[-79.894444,39.173611],[-79.543056,39.370833],[-77.933333,39.85],[-77.840278,39.855556],[-77.617222,39.772222],[-77.356667,39.781667],[-77.358333,39.51],[-76.855556,39.385],[-76.347222,39.391667],[-75.65,39.85],[-75.625,39.861111],[-75.329167,40.069444],[-74.783333,40.109722],[-74.684722,39.983333],[-73.698611,40.238889],[-73.729167,39.933333],[-73.283333,39.733333],[-73.166667,39.683333],[-73.433333,39.333333],[-73.841667,38.766667],[-73.983333,38.541667],[-74.599722,37.081667],[-74.599722,36.787778],[-74.936944,35.496944],[-75.19,35.308056],[-75.683889,34.600278],[-76.779444,32.967778],[-78.75,34.444444],[-79.333333,34.425],[-79.728056,34.713333],[-79.916667,34.85],[-80.147222,34.855556],[-80.0,35.108333],[-79.804167,35.383333],[-79.744444,36.088889],[-79.95,36.154167],[-80.633333,37.331944],[-80.745833,37.304167],[-80.841667,37.466667],[-80.716667,38.041667],[-80.566667,38.766667],[-80.4,39.166667]]]]}},{"type":"Feature","properties":{"id":"ZDV","name":"DENVER","strata":["LOW","HIGH"]},"geometry":{"type":"MultiPolygon","coordinates":[[[[-103.166667,44.958333],[-101.483333,44.7],[-101.408333,43.708333],[-100.1,43.288889],[-99.016667,42.0],[-99.058333,39.983333],[-98.8,39.466667],[-102.55,37.5],[-105.0,36.716667],[-106.083333,36.716667],[-107.466667,36.2],[-108.216667,36.033333],[-110.233333,35.7],[-111.841667,35.766667],[-111.504167,36.420833],[-111.608333,36.733333],[-111.879167,37.4125],[-110.883333,37.833333],[-110.156944,38.129167],[-109.983333,38.2],[-109.983333,38.933333],[-109.983333,39.216667],[-110.3,39.583333],[-109.166667,40.0],[-109.1,40.85],[-108.275,41.366667],[-108.0,41.608333],[-107.05,42.416667],[-107.283333,43.883333],[-106.266667,44.316667],[-106.0,45.2375],[-104.25,45.116667],[-103.166667,44.958333]]],[[[-103.166667,44.958333],[-101.483333,44.7],[-101.408333,43.708333],[-100.1,43.288889],[-99.016667,42.0],[-99.058333,39.983333],[-98.8,39.466667],[-102.55,37.5],[-105.0,36.716667],[-106.083333,36.716667],[-107.466667,36.2],[-108.216667,36.033333],[-110.233333,35.7],[-111.841667,35.766667],[-111.504167,36.420833],[-111.608333,36.733333],[-111.879167,37.4125],[-110.883333,37.833333],[-110.156944,38.129167],[-109.983333,38.2],[-109.983333,38.933333],[-109.983333,39.216667],[-110.3,39.583333],[-109.166667,40.0],[-109.1,40.85],[-108.275,41.366667],[-108.0,41.608333],[-107.05,42.416667],[-107.283333,43.883333],[-106.266667,44.316667],[-106.0,45.2375],[-104.25,45.116667],[-103.166667,44.958333]]]]}},{"type":"Feature","properties":{"id":"ZFW","name":"FORT WORTH","strata":["LOW","HIGH"]},"geometry":{"type":"MultiPolygon","coordinates":[[[[-100.0,35.829167],[-98.5,35.816667],[-98.016667,35.883333],[-97.883333,35.925],[-97.583333,35.491667],[-97.083333,35.458333],[-96.404167,35.65],[-96.05,35.870833],[-95.6125,36.016667],[-95.0,35.654167],[-95.0,35.383333],[-95.0,35.066667],[-94.783333,34.691667],[-94.533333,34.533333],[-93.541667,34.033333],[-93.158333,33.95],[-91.9,33.004167],[-91.688889,32.283333],[-92.258333,32.283333],[-93.320833,31.558333],[-94.2,31.572222],[-95.983333,31.466667],[-96.683333,31.204167],[-97.2,31.2],[-97.5125,31.2125],[-97.7125,31.375],[-97.794444,31.390278],[-99.466667,31.383333],[-100.55,30.983333],[-102.15,31.283333],[-103.333333,31.65],[-103.8,32.033333],[-103.933333,32.466667],[-103.8,33.0],[-103.8,33.383333],[-103.691667,33.402778],[-103.366667,33.775],[-102.8,34.316667],[-102.325,34.55],[-102.0,34.6],[-100.75,34.466667],[-100.316667,34.866667],[-100.0,35.333333],[-100.0,35.829167]]],[[[-100.0,35.829167],[-98.5,35.816667],[-98.016667,35.883333],[-97.883333,35.925],[-97.583333,35.491667],[-97.083333,35.458333],[-96.404167,35.65],[-96.05,35.870833],[-95.6125,36.016667],[-95.366667,35.870833],[-95.0,35.654167],[-95.0,35.383333],[-95.0,35.066667],[-94.783333,34.691667],[-94.533333,34.533333],[-93.541667,34.033333],[-93.158333,33.95],[-91.9,33.004167],[-91.688889,32.283333],[-92.258333,32.283333],[-93.320833,31.558333],[-94.2,31.572222],[-95.983333,31.466667],[-96.683333,31.204167],[-97.2,31.2],[-97.5125,31.2125],[-97.7125,31.375],[-97.794444,31.390278],[-99.466667,31.383333],[-100.55,30.983333],[-102.15,31.283333],[-103.333333,31.65],[-103.8,32.033333],[-103.933333,32.466667],[-103.8,33.0],[-103.8,33.383333],[-103.691667,33.402778],[-103.366667,33.775],[-102.8,34.316667],[-102.325,34.55],[-102.0,34.6],[-100.75,34.466667],[-100.316667,34.866667],[-100.0,35.333333],[-100.0,35.829167]]]]}},{"type":"Feature","properties":{"id":"ZHN","name":"HONOLULU CONTROL FACILITY","strata":["UNLIMITED"]},"geometry":{"type":"MultiPolygon","coordinates":[[[[-156.421111,25.195833],[-155.263056,24.721389],[-154.25,24.295833],[-153.366111,23.780556],[-152.577778,23.024167],[-151.885278,22.344167],[-151.466389,21.547778],[-151.019167,20.696944],[-150.503056,19.696389],[-151.879633,19.222933],[-154.483333,19.142222],[-155.711667,18.108889],[-156.068056,17.805],[-156.805833,17.170556],[-157.756667,17.170556],[-158.251111,17.224444],[-159.538889,17.755833],[-160.269722,18.0525],[-160.814167,18.407778],[-162.383611,19.415],[-162.699444,19.658056],[-163.3,20.116667],[-163.914444,21.151111],[-163.914444,22.205556],[-163.855,23.258333],[-163.266389,24.168889],[-162.649722,25.056667],[-161.691111,25.676111],[-160.631667,26.105],[-158.621944,26.144722],[-156.421111,25.195833]]]]}},{"type":"Feature","properties":{"id":"ZHU","name":"HOUSTON","strata":["LOW","HIGH"]},"geometry":{"type":"MultiPolygon","coordinates":[[[[-102.558333,29.766667],[-102.15,31.283333],[-100.55,30.983333],[-99.466667,31.383333],[-97.794444,31.390278],[-97.7125,31.375],[-97.5125,31.2125],[-97.2,31.2],[-96.683333,31.204167],[-95.983333,31.466667],[-94.2,31.572222],[-93.320833,31.558333],[-92.258333,32.283333],[-91.688889,32.283333],[-91.308333,31.9125],[-90.345833,31.65],[-89.85,31.630556],[-88.9,31.547222],[-88.325,31.516667],[-87.816667,31.520833],[-87.4,31.280556],[-87.658333,30.958333],[-87.683333,30.845833],[-87.716667,30.691667],[-87.808333,30.683333],[-87.916667,30.633333],[-87.916667,30.516667],[-88.025,30.220833],[-88.0,28.141667],[-89.0,28.25],[-94.0,28.25],[-95.15,27.533333],[-95.916667,26.0],[-96.0,26.0],[-97.0,26.0],[-97.15,25.958333],[-97.266667,25.95],[-97.333333,25.904167],[-97.4,25.8375],[-97.466667,25.883333],[-97.533333,25.908333],[-97.6,25.975],[-97.666667,26.018056],[-97.733333,26.025],[-97.8,26.05],[-97.866667,26.054167],[-97.933333,26.058333],[-98.0,26.063889],[-98.066667,26.047222],[-98.133333,26.063889],[-98.2,26.052778],[-98.266667,26.083333],[-98.333333,26.130556],[-98.4,26.166667],[-98.466667,26.222222],[-98.533333,26.227778],[-98.6,26.252778],[-98.666667,26.236111],[-98.733333,26.3],[-98.8,26.366667],[-98.866667,26.363889],[-98.933333,26.388889],[-99.0,26.391667],[-99.066667,26.4],[-99.133333,26.522222],[-99.2,26.638889],[-99.266667,26.805556],[-99.333333,26.916667],[-99.4,27.0],[-99.466667,27.266667],[-99.533333,27.305556],[-99.488889,27.416667],[-99.527778,27.494444],[-99.566667,27.602778],[-99.633333,27.625],[-99.7,27.655556],[-99.766667,27.722222],[-99.833333,27.766667],[-99.9,27.913889],[-99.966667,27.986111],[-100.033333,28.072222],[-100.1,28.15],[-100.166667,28.169444],[-100.233333,28.225],[-100.3,28.333333],[-100.341667,28.45],[-100.4,28.530556],[-100.45,28.608333],[-100.516667,28.669444],[-100.583333,28.855556],[-100.65,28.938889],[-100.716667,29.122222],[-100.783333,29.222222],[-100.85,29.269444],[-100.916667,29.319444],[-100.983333,29.361111],[-101.05,29.433333],[-101.116667,29.469444],[-101.183333,29.516667],[-101.25,29.519444],[-101.3,29.566667],[-101.333333,29.655556],[-101.4,29.736111],[-101.466667,29.783333],[-101.533333,29.758333],[-101.6,29.769444],[-101.666667,29.769444],[-101.733333,29.772222],[-101.8,29.780556],[-101.866667,29.791667],[-101.933333,29.802778],[-102.0,29.8],[-102.066667,29.786111],[-102.133333,29.8],[-102.2,29.838889],[-102.266667,29.866667],[-102.333333,29.866667],[-102.4,29.769444],[-102.466667,29.775],[-102.533333,29.752778],[-102.558333,29.766667]]],[[[-102.558333,29.766667],[-102.15,31.283333],[-100.55,30.983333],[-99.466667,31.383333],[-97.794444,31.390278],[-97.7125,31.375],[-97.5125,31.2125],[-97.2,31.2],[-96.683333,31.204167],[-95.983333,31.466667],[-94.2,31.572222],[-93.320833,31.558333],[-92.258333,32.283333],[-91.688889,32.283333],[-91.308333,31.9125],[-90.345833,31.65],[-89.85,31.630556],[-88.9,31.547222],[-88.325,31.516667],[-87.816667,31.520833],[-87.4,31.280556],[-87.658333,30.958333],[-87.683333,30.845833],[-87.716667,30.691667],[-87.808333,30.683333],[-87.916667,30.633333],[-87.916667,30.516667],[-88.025,30.220833],[-88.0,28.141667],[-89.0,28.25],[-94.0,28.25],[-95.15,27.533333],[-95.916667,26.0],[-96.0,26.0],[-97.0,26.0],[-97.15,25.958333],[-97.266667,25.95],[-97.333333,25.904167],[-97.4,25.8375],[-97.466667,25.883333],[-97.533333,25.908333],[-97.6,25.975],[-97.666667,26.018056],[-97.733333,26.025],[-97.8,26.05],[-97.866667,26.054167],[-97.933333,26.058333],[-98.0,26.063889],[-98.066667,26.047222],[-98.133333,26.063889],[-98.2,26.052778],[-98.266667,26.083333],[-98.333333,26.130556],[-98.4,26.166667],[-98.466667,26.222222],[-98.533333,26.227778],[-98.6,26.252778],[-98.666667,26.236111],[-98.733333,26.3],[-98.8,26.366667],[-98.866667,26.363889],[-98.933333,26.388889],[-99.0,26.391667],[-99.066667,26.4],[-99.133333,26.522222],[-99.2,26.638889],[-99.266667,26.805556],[-99.333333,26.916667],[-99.4,27.0],[-99.466667,27.266667],[-99.533333,27.305556],[-99.488889,27.416667],[-99.527778,27.494444],[-99.566667,27.602778],[-99.633333,27.625],[-99.7,27.655556],[-99.766667,27.722222],[-99.833333,27.766667],[-99.9,27.913889],[-99.966667,27.986111],[-100.033333,28.072222],[-100.1,28.15],[-100.166667,28.169444],[-100.233333,28.225],[-100.3,28.333333],[-100.341667,28.45],[-100.4,28.530556],[-100.45,28.608333],[-100.516667,28.669444],[-100.583333,28.855556],[-100.65,28.938889],[-100.716667,29.122222],[-100.783333,29.222222],[-100.85,29.269444],[-100.916667,29.319444],[-100.983333,29.361111],[-101.05,29.433333],[-101.116667,29.469444],[-101.183333,29.516667],[-101.25,29.519444],[-101.3,29.566667],[-101.333333,29.655556],[-101.4,29.736111],[-101.466667,29.783333],[-101.533333,29.758333],[-101.6,29.769444],[-101.666667,29.769444],[-101.733333,29.772222],[-101.8,29.780556],[-101.866667,29.791667],[-101.933333,29.802778],[-102.0,29.8],[-102.066667,29.786111],[-102.133333,29.8],[-102.2,29.838889],[-102.266667,29.866667],[-102.333333,29.866667],[-102.4,29.769444],[-102.466667,29.775],[-102.533333,29.752778],[-102.558333,29.766667]]]]}},{"type":"Feature","properties":{"id":"ZID","name":"INDIANAPOLIS","strata":["LOW","HIGH"]},"geometry":{"type":"MultiPolygon","coordinates":[[[[-88.148056,39.868333],[-88.183333,39.904167],[-88.25,40.0],[-86.95,40.0],[-86.1,40.0],[-85.955556,40.119444],[-85.504167,40.558333],[-85.414444,40.663333],[-84.991944,40.606944],[-84.684444,40.746389],[-84.7,40.908333],[-83.745833,40.783333],[-83.65,40.7375],[-83.5,40.558333],[-83.333333,40.508333],[-81.783333,40.6],[-81.633333,40.216667],[-81.55,39.75],[-80.5,39.166667],[-80.4,39.166667],[-80.566667,38.766667],[-80.716667,38.041667],[-80.841667,37.466667],[-80.745833,37.304167],[-85.4,36.183333],[-85.583333,36.9],[-85.745833,37.013889],[-86.15,37.3],[-87.397222,37.275],[-88.316667,37.725],[-88.233333,38.15],[-88.094444,38.485278],[-88.148056,39.868333]]],[[[-88.25,40.0],[-86.1,40.0],[-85.525,40.354167],[-84.683333,40.666667],[-84.683333,40.775],[-84.7,40.908333],[-83.745833,40.783333],[-83.65,40.7375],[-83.5,40.558333],[-83.333333,40.508333],[-81.783333,40.6],[-81.633333,40.216667],[-81.55,39.75],[-80.5,39.166667],[-80.4,39.166667],[-80.566667,38.766667],[-80.716667,38.041667],[-80.841667,37.466667],[-80.745833,37.304167],[-85.4,36.183333],[-85.583333,36.9],[-85.745833,37.013889],[-86.15,37.3],[-87.397222,37.275],[-88.316667,37.725],[-88.233333,38.15],[-88.094444,38.485278],[-88.148056,39.868333],[-88.183333,39.904167],[-88.25,40.0]]]]}},{"type":"Feature","properties":{"id":"ZJX","name":"JACKSONVILLE","strata":["LOW","HIGH"]},"geometry":{"type":"MultiPolygon","coordinates":[[[[-87.4,31.280556],[-86.95,31.491667],[-83.8,32.091667],[-83.495833,32.125],[-82.645833,32.447222],[-82.2,32.291667],[-81.933333,32.5625],[-81.841389,32.900278],[-81.85,33.888889],[-81.804444,33.985278],[-81.574444,34.293611],[-81.333333,34.394444],[-80.468889,34.7475],[-80.147222,34.855556],[-79.916667,34.85],[-79.728056,34.713333],[-78.75,34.444444],[-76.779444,32.967778],[-77.0,32.262222],[-77.0,30.0],[-77.216667,30.0],[-79.286667,30.200278],[-79.900833,29.822222],[-80.115556,29.025],[-80.733333,28.9],[-80.986111,28.727778],[-80.903333,28.5025],[-80.968056,28.470833],[-81.409722,28.386389],[-81.5,28.346389],[-82.383333,27.95],[-82.941667,27.95],[-83.208333,28.158333],[-83.516667,28.4],[-84.01,28.548056],[-84.5,28.166667],[-84.616111,28.0625],[-84.944444,28.043056],[-85.25,27.5],[-85.622222,27.253889],[-86.0,27.0],[-86.817222,27.241389],[-87.683333,27.5],[-88.0,28.141667],[-88.025,30.220833],[-87.916667,30.516667],[-87.916667,30.633333],[-87.808333,30.683333],[-87.716667,30.691667],[-87.683333,30.845833],[-87.658333,30.958333],[-87.4,31.280556]]],[[[-87.4,31.280556],[-86.95,31.491667],[-85.583333,31.7625],[-85.308333,31.533333],[-84.1,31.683333],[-83.1125,31.683333],[-82.333333,32.166667],[-81.933333,32.5625],[-81.841389,32.900278],[-81.85,33.888889],[-81.804444,33.985278],[-81.574444,34.293611],[-81.333333,34.394444],[-80.468889,34.7475],[-80.147222,34.855556],[-79.916667,34.85],[-79.728056,34.713333],[-79.333333,34.425],[-78.75,34.444444],[-76.779444,32.967778],[-77.0,32.262222],[-77.0,30.0],[-77.216667,30.0],[-79.286667,30.200278],[-79.900833,29.822222],[-80.115556,29.025],[-80.733333,28.9],[-80.986111,28.727778],[-81.5,28.346389],[-82.383333,27.95],[-82.941667,27.95],[-83.208333,28.158333],[-83.516667,28.4],[-84.01,28.548056],[-84.5,28.166667],[-84.616111,28.0625],[-84.944444,28.043056],[-85.25,27.5],[-85.622222,27.253889],[-86.0,27.0],[-86.817222,27.241389],[-87.683333,27.5],[-88.0,28.141667],[-88.025,30.220833],[-87.916667,30.516667],[-87.916667,30.633333],[-87.808333,30.683333],[-87.716667,30.691667],[-87.683333,30.845833],[-87.658333,30.958333],[-87.4,31.280556]]]]}},{"type":"Feature","properties":{"id":"ZKC","name":"KANSAS CITY","strata":["LOW","HIGH"]},"geometry":{"type":"MultiPolygon","coordinates":[[[[-98.8,39.466667],[-93.491667,40.525],[-91.741667,40.763889],[-91.65,40.783333],[-89.75,40.0],[-88.25,40.0],[-88.183333,39.904167],[-88.148056,39.868333],[-88.094444,38.485278],[-88.233333,38.15],[-88.316667,37.725],[-88.833333,37.533333],[-90.566667,37.15],[-93.25,36.725],[-94.408333,36.491667],[-94.683333,36.433333],[-95.195833,36.2875],[-95.4,36.204167],[-95.6125,36.016667],[-96.05,35.870833],[-96.404167,35.65],[-97.083333,35.458333],[-97.583333,35.491667],[-97.883333,35.925],[-98.016667,35.883333],[-98.5,35.816667],[-100.0,35.829167],[-101.75,36.5],[-102.55,37.5],[-98.8,39.466667]]],[[[-98.8,39.466667],[-93.491667,40.525],[-91.741667,40.763889],[-91.65,40.783333],[-89.75,40.0],[-88.25,40.0],[-88.183333,39.904167],[-88.148056,39.868333],[-88.094444,38.485278],[-88.233333,38.15],[-88.316667,37.725],[-88.833333,37.533333],[-90.566667,37.15],[-93.25,36.725],[-94.408333,36.491667],[-94.683333,36.433333],[-95.366667,35.870833],[-95.6125,36.016667],[-96.05,35.870833],[-96.404167,35.65],[-97.083333,35.458333],[-97.583333,35.491667],[-97.883333,35.925],[-98.016667,35.883333],[-98.5,35.816667],[-100.0,35.829167],[-101.75,36.5],[-102.55,37.5],[-98.8,39.466667]]]]}},{"type":"Feature","properties":{"id":"ZLA","name":"LOS ANGELES","strata":["LOW","HIGH"]},"geometry":{"type":"MultiPolygon","coordinates":[[[[-123.25,34.5],[-120.85,35.533333],[-120.116667,35.75],[-119.5,35.633333],[-119.166667,36.133333],[-118.583333,36.133333],[-118.583333,37.2],[-117.333333,37.2],[-117.008333,37.366667],[-117.075833,37.441667],[-117.094722,37.55],[-117.094722,37.883333],[-116.9175,37.883333],[-116.833333,37.883333],[-116.434167,37.883333],[-116.184167,37.883333],[-114.701667,37.999722],[-114.500833,38.016667],[-114.200833,38.016667],[-114.0,37.968333],[-113.783333,37.716667],[-113.0,37.5],[-111.879167,37.4125],[-111.608333,36.733333],[-111.504167,36.420833],[-111.841667,35.766667],[-112.0,35.4],[-112.153056,35.396667],[-112.666667,35.383333],[-112.927778,35.255556],[-113.616667,34.916667],[-113.7,34.866667],[-114.0,34.666667],[-114.0,33.4],[-114.0,32.683333],[-113.684722,32.7375],[-113.512769,32.116228],[-113.508333,32.1],[-114.0,32.25],[-114.813056,32.493889],[-114.718611,32.718611],[-115.808333,32.641667],[-117.123611,32.534167],[-117.314167,32.446667],[-120.666667,30.833333],[-120.833333,30.75],[-123.25,34.5]]],[[[-123.25,34.5],[-120.85,35.533333],[-120.116667,35.75],[-119.5,35.633333],[-119.166667,36.133333],[-118.583333,36.133333],[-118.583333,37.2],[-117.333333,37.2],[-117.008333,37.366667],[-117.075833,37.441667],[-117.094722,37.55],[-117.094722,37.883333],[-116.9175,37.883333],[-116.833333,37.883333],[-116.434167,37.883333],[-116.184167,37.883333],[-114.701667,37.999722],[-114.500833,38.016667],[-114.200833,38.016667],[-114.0,37.968333],[-113.783333,37.716667],[-113.0,37.5],[-111.879167,37.4125],[-111.608333,36.733333],[-111.504167,36.420833],[-111.841667,35.766667],[-112.0,35.4],[-112.153056,35.396667],[-112.666667,35.383333],[-112.927778,35.255556],[-113.616667,34.916667],[-113.7,34.866667],[-114.0,34.666667],[-114.0,33.4],[-114.0,32.683333],[-113.684722,32.7375],[-113.512769,32.116228],[-113.508333,32.1],[-114.0,32.25],[-114.813056,32.493889],[-114.718611,32.718611],[-115.808333,32.641667],[-117.123611,32.534167],[-117.314167,32.446667],[-120.666667,30.833333],[-120.833333,30.75],[-123.25,34.5]]]]}},{"type":"Feature","properties":{"id":"ZLC","name":"SALT LAKE CITY","strata":["LOW","HIGH"]},"geometry":{"type":"MultiPolygon","coordinates":[[[[-114.666667,49.0],[-114.5,49.0],[-114.0,49.0],[-113.5,49.0],[-113.0,49.0],[-112.5,49.0],[-112.0,49.0],[-111.5,49.0],[-111.0,49.0],[-110.5,49.0],[-110.0,49.0],[-109.5,49.0],[-109.0,49.0],[-108.5,49.0],[-108.0,49.0],[-107.5,49.0],[-107.0,49.0],[-106.5,49.0],[-106.0,49.0],[-105.5,49.0],[-105.0,49.0],[-104.5,49.0],[-104.0,49.0],[-103.5,49.0],[-103.166667,49.0],[-103.166667,46.6],[-103.166667,44.958333],[-104.25,45.116667],[-106.0,45.2375],[-106.266667,44.316667],[-107.283333,43.883333],[-107.05,42.416667],[-108.0,41.608333],[-108.275,41.366667],[-109.1,40.85],[-109.166667,40.0],[-110.3,39.583333],[-109.983333,39.216667],[-109.983333,38.933333],[-109.983333,38.2],[-110.156944,38.129167],[-110.883333,37.833333],[-111.879167,37.4125],[-113.0,37.5],[-113.783333,37.716667],[-114.0,37.968333],[-114.200833,38.016667],[-114.500833,38.016667],[-114.701667,37.999722],[-116.184167,37.883333],[-116.434167,37.883333],[-116.833333,37.883333],[-116.9175,37.883333],[-117.094722,37.883333],[-117.266667,38.083333],[-117.366667,39.933333],[-119.5,41.0],[-119.0,42.666667],[-119.283333,43.633333],[-118.45,44.85],[-117.75,45.333333],[-115.0,45.333333],[-115.0,48.416667],[-114.666667,49.0]]],[[[-114.666667,49.0],[-114.5,49.0],[-114.0,49.0],[-113.5,49.0],[-113.0,49.0],[-112.5,49.0],[-112.0,49.0],[-111.5,49.0],[-111.0,49.0],[-110.5,49.0],[-110.0,49.0],[-109.5,49.0],[-109.0,49.0],[-108.5,49.0],[-108.0,49.0],[-107.5,49.0],[-107.0,49.0],[-106.5,49.0],[-106.0,49.0],[-105.5,49.0],[-105.0,49.0],[-104.5,49.0],[-104.0,49.0],[-103.5,49.0],[-103.166667,49.0],[-103.166667,46.6],[-103.166667,44.958333],[-104.25,45.116667],[-106.0,45.2375],[-106.266667,44.316667],[-107.283333,43.883333],[-107.05,42.416667],[-108.0,41.608333],[-108.275,41.366667],[-109.1,40.85],[-109.166667,40.0],[-110.3,39.583333],[-109.983333,39.216667],[-109.983333,38.933333],[-109.983333,38.2],[-110.156944,38.129167],[-110.883333,37.833333],[-111.879167,37.4125],[-113.0,37.5],[-113.783333,37.716667],[-114.0,37.968333],[-114.200833,38.016667],[-114.500833,38.016667],[-114.701667,37.999722],[-116.184167,37.883333],[-116.434167,37.883333],[-116.833333,37.883333],[-116.9175,37.883333],[-117.094722,37.883333],[-117.266667,38.083333],[-117.366667,39.933333],[-119.5,41.0],[-119.0,42.666667],[-119.283333,43.633333],[-118.45,44.85],[-117.75,45.333333],[-115.0,45.333333],[-115.0,48.416667],[-114.666667,49.0]]]]}},{"type":"Feature","properties":{"id":"ZMA","name":"MIAMI","strata":["LOW","HIGH"]},"geometry":{"type":"MultiPolygon","coordinates":[[[[-85.25,27.5],[-84.944444,28.043056],[-84.616111,28.0625],[-84.5,28.166667],[-84.01,28.548056],[-83.516667,28.4],[-83.208333,28.158333],[-82.941667,27.95],[-82.383333,27.95],[-81.5,28.346389],[-81.409722,28.386389],[-80.968056,28.470833],[-80.903333,28.5025],[-80.986111,28.727778],[-80.733333,28.9],[-80.115556,29.025],[-79.900833,29.822222],[-79.286667,30.200278],[-77.216667,30.0],[-77.0,30.0],[-76.264444,27.833333],[-77.0,27.55],[-77.0,27.0],[-78.883333,27.0],[-79.0,26.45],[-79.0,24.666667],[-78.0,24.0],[-83.166667,24.0],[-83.240556,24.643889],[-84.5,27.5],[-85.25,27.5]]],[[[-85.25,27.5],[-84.944444,28.043056],[-84.616111,28.0625],[-84.5,28.166667],[-84.01,28.548056],[-83.516667,28.4],[-83.208333,28.158333],[-82.941667,27.95],[-82.383333,27.95],[-81.5,28.346389],[-80.986111,28.727778],[-80.733333,28.9],[-80.115556,29.025],[-79.900833,29.822222],[-79.286667,30.200278],[-77.216667,30.0],[-77.0,30.0],[-76.264444,27.833333],[-77.0,27.55],[-77.0,27.0],[-78.883333,27.0],[-79.0,26.45],[-79.0,24.666667],[-78.0,24.0],[-83.166667,24.0],[-83.240556,24.643889],[-84.5,27.5],[-85.25,27.5]]]]}},{"type":"Feature","properties":{"id":"ZME","name":"MEMPHIS","strata":["LOW","HIGH"]},"geometry":{"type":"MultiPolygon","coordinates":[[[[-95.6125,36.016667],[-95.4,36.204167],[-95.195833,36.2875],[-94.683333,36.433333],[-94.408333,36.491667],[-93.25,36.725],[-90.566667,37.15],[-88.833333,37.533333],[-88.316667,37.725],[-87.397222,37.275],[-86.15,37.3],[-85.745833,37.013889],[-85.583333,36.9],[-85.4,36.183333],[-85.233333,35.416667],[-85.483333,34.85],[-85.930556,34.811111],[-86.075,34.636111],[-86.175,34.3875],[-86.713333,34.1],[-87.25,34.1],[-87.55,34.016667],[-87.633333,33.316667],[-87.986111,33.043056],[-87.85,32.697222],[-88.347222,32.330556],[-88.325,31.516667],[-88.9,31.547222],[-89.85,31.630556],[-90.345833,31.65],[-91.308333,31.9125],[-91.688889,32.283333],[-91.9,33.004167],[-93.158333,33.95],[-93.541667,34.033333],[-94.533333,34.533333],[-94.783333,34.691667],[-95.0,35.066667],[-95.0,35.383333],[-95.0,35.654167],[-95.6125,36.016667]]],[[[-95.366667,35.870833],[-94.683333,36.433333],[-94.408333,36.491667],[-93.25,36.725],[-90.566667,37.15],[-88.833333,37.533333],[-88.316667,37.725],[-87.397222,37.275],[-86.15,37.3],[-85.745833,37.013889],[-85.583333,36.9],[-85.4,36.183333],[-85.283333,35.65],[-86.0,35.516667],[-87.0,35.333333],[-87.0,34.366667],[-87.25,34.1],[-87.55,34.016667],[-87.633333,33.316667],[-87.986111,33.043056],[-87.85,32.697222],[-88.347222,32.330556],[-88.325,31.516667],[-88.9,31.547222],[-89.85,31.630556],[-90.345833,31.65],[-91.308333,31.9125],[-91.688889,32.283333],[-91.9,33.004167],[-93.158333,33.95],[-93.541667,34.033333],[-94.533333,34.533333],[-94.783333,34.691667],[-95.0,35.066667],[-95.0,35.383333],[-95.0,35.654167],[-95.366667,35.870833]]]]}},{"type":"Feature","properties":{"id":"ZMP","name":"MINNEAPOLIS","strata":["LOW","HIGH"]},"geometry":{"type":"MultiPolygon","coordinates":[[[[-103.166667,49.0],[-103.0,49.0],[-102.5,49.0],[-102.0,49.0],[-101.5,49.0],[-101.0,49.0],[-100.5,49.0],[-100.0,49.0],[-99.5,49.0],[-99.0,49.0],[-98.5,49.0],[-98.0,49.0],[-97.5,49.0],[-97.0,49.0],[-96.5,49.0],[-96.0,49.0],[-95.166667,49.0],[-93.5,49.0],[-90.1,48.108333],[-90.019444,48.021667],[-89.919167,47.945556],[-89.801111,47.882222],[-89.668611,47.833333],[-89.525833,47.800833],[-89.376944,47.785],[-89.226111,47.786667],[-89.078056,47.805833],[-88.936944,47.841944],[-88.806944,47.893889],[-88.775,47.908333],[-87.0,47.083333],[-85.633333,46.75],[-84.533333,46.383333],[-84.358333,46.25],[-83.583333,45.816667],[-82.5,45.333333],[-82.169444,43.855278],[-84.963611,43.586667],[-87.169444,43.691667],[-87.541667,43.966667],[-88.466667,44.1],[-88.754167,44.159444],[-89.076111,44.225],[-89.5875,44.154167],[-90.291667,44.154167],[-90.829167,43.618056],[-91.083333,43.366667],[-91.725,42.725],[-93.0,42.783333],[-93.05,42.666667],[-93.466667,41.666667],[-93.508333,41.433333],[-93.6,41.166667],[-93.491667,40.525],[-98.8,39.466667],[-99.058333,39.983333],[-99.016667,42.0],[-100.1,43.288889],[-101.408333,43.708333],[-101.483333,44.7],[-103.166667,44.958333],[-103.166667,46.6],[-103.166667,49.0]]],[[[-103.166667,49.0],[-103.0,49.0],[-102.5,49.0],[-102.0,49.0],[-101.5,49.0],[-101.0,49.0],[-100.5,49.0],[-100.0,49.0],[-99.5,49.0],[-99.0,49.0],[-98.5,49.0],[-98.0,49.0],[-97.5,49.0],[-97.0,49.0],[-96.5,49.0],[-96.0,49.0],[-95.166667,49.0],[-93.5,49.0],[-90.1,48.108333],[-90.019444,48.021667],[-89.919167,47.945556],[-89.801111,47.882222],[-89.668611,47.833333],[-89.525833,47.800833],[-89.376944,47.785],[-89.226111,47.786667],[-89.078056,47.805833],[-88.936944,47.841944],[-88.806944,47.893889],[-88.775,47.908333],[-87.0,47.083333],[-85.633333,46.75],[-84.533333,46.383333],[-84.358333,46.25],[-83.583333,45.816667],[-82.5,45.333333],[-82.169444,43.855278],[-84.963611,43.586667],[-87.169444,43.691667],[-87.541667,43.966667],[-88.466667,44.1],[-88.754167,44.159444],[-89.076111,44.225],[-89.5875,44.154167],[-90.291667,44.154167],[-90.829167,43.618056],[-91.083333,43.366667],[-91.725,42.725],[-93.0,42.783333],[-93.05,42.666667],[-93.466667,41.666667],[-93.508333,41.433333],[-93.6,41.166667],[-93.491667,40.525],[-98.8,39.466667],[-99.058333,39.983333],[-99.016667,42.0],[-100.1,43.288889],[-101.408333,43.708333],[-101.483333,44.7],[-103.166667,44.958333],[-103.166667,46.6],[-103.166667,49.0]]]]}},{"type":"Feature","properties":{"id":"ZNY","name":"NEW YORK","strata":["LOW","HIGH"]},"geometry":{"type":"MultiPolygon","coordinates":[[[[-76.697222,42.727778],[-76.666667,42.883333],[-76.483333,42.941667],[-76.088889,42.9375],[-76.013889,42.8625],[-75.969444,42.695833],[-76.052778,42.311944],[-75.341667,41.988889],[-75.058333,41.869444],[-74.958333,41.741667],[-74.345833,41.483333],[-74.075,41.341667],[-74.084722,41.319444],[-74.006111,41.294444],[-73.866667,41.245833],[-73.859722,40.858333],[-73.377778,40.858333],[-73.291667,40.801389],[-73.636111,40.331944],[-73.4,40.3875],[-73.254167,40.409722],[-73.236111,40.398611],[-72.988889,40.291667],[-72.5,40.072222],[-70.879444,40.576667],[-69.341667,40.925],[-69.0,41.0],[-67.0,41.616667],[-67.0,39.0],[-69.95,38.333333],[-71.683333,37.516667],[-72.666667,37.2275],[-72.666667,35.093056],[-73.573056,34.488056],[-73.95,34.233333],[-76.816667,32.2],[-77.0,32.262222],[-76.779444,32.967778],[-75.683889,34.600278],[-75.19,35.308056],[-74.936944,35.496944],[-74.599722,36.787778],[-74.599722,37.081667],[-73.983333,38.541667],[-73.841667,38.766667],[-73.658333,39.034722],[-74.194444,39.579167],[-74.498611,39.593056],[-74.455556,39.655833],[-74.8,39.652778],[-74.911111,39.709722],[-74.94,39.751667],[-74.804167,39.9],[-74.684722,39.983333],[-74.452778,40.144444],[-74.333333,40.25],[-74.515278,40.308333],[-74.676389,40.258333],[-74.956944,40.341667],[-75.016667,40.290278],[-75.016389,40.29],[-75.036667,40.255],[-75.0575,40.239444],[-75.075833,40.230556],[-75.096389,40.222778],[-75.119722,40.2175],[-75.118333,40.216667],[-75.625,39.861111],[-75.65,39.85],[-76.347222,39.391667],[-76.855556,39.385],[-77.358333,39.51],[-77.356667,39.781667],[-77.355,39.875],[-77.840278,39.855556],[-77.879167,40.55],[-78.127778,40.858333],[-77.85,41.255556],[-77.541667,41.677778],[-77.236111,42.175],[-76.802778,42.608333],[-76.697222,42.727778]]],[[[-73.166667,39.683333],[-73.15,39.733333],[-73.008333,39.994444],[-72.781944,40.198611],[-72.5,40.072222],[-70.879444,40.576667],[-69.341667,40.925],[-69.0,41.0],[-67.0,41.616667],[-67.0,39.0],[-69.95,38.333333],[-71.683333,37.516667],[-72.666667,37.2275],[-72.666667,35.093056],[-73.573056,34.488056],[-73.95,34.233333],[-76.816667,32.2],[-77.0,32.262222],[-76.779444,32.967778],[-75.683889,34.600278],[-75.19,35.308056],[-74.936944,35.496944],[-74.599722,36.787778],[-74.599722,37.081667],[-73.983333,38.541667],[-73.841667,38.766667],[-73.433333,39.333333],[-73.166667,39.683333],[-73.729167,39.933333],[-73.698611,40.238889],[-74.684722,39.983333],[-74.783333,40.109722],[-75.329167,40.069444],[-75.625,39.861111],[-75.65,39.85],[-76.347222,39.391667],[-76.855556,39.385],[-77.358333,39.51],[-77.356667,39.781667],[-77.617222,39.772222],[-77.840278,39.855556],[-77.879167,40.55],[-78.127778,40.858333],[-77.85,41.255556],[-77.541667,41.677778],[-77.236111,42.175],[-76.802778,42.608333],[-76.016667,42.283333],[-75.341667,41.988889],[-75.058333,41.869444],[-74.908333,41.801389],[-74.808333,41.758333],[-74.766667,41.733333],[-74.444444,41.4375],[-73.866667,41.245833],[-73.859722,40.858333],[-73.377778,40.858333],[-73.291667,40.801389],[-73.698611,40.238889],[-73.729167,39.933333],[-73.166667,39.683333]]]]}},{"type":"Feature","properties":{"id":"ZOA","name":"OAKLAND","strata":["LOW","HIGH"]},"geometry":{"type":"MultiPolygon","coordinates":[[[[-126.9,40.983333],[-125.333333,40.216667],[-123.833333,40.216667],[-123.533333,40.3875],[-123.533333,41.333333],[-123.0,41.333333],[-122.416667,41.333333],[-121.25,41.0],[-119.5,41.0],[-117.366667,39.933333],[-117.266667,38.083333],[-117.094722,37.883333],[-117.094722,37.55],[-117.075833,37.441667],[-117.008333,37.366667],[-117.333333,37.2],[-118.583333,37.2],[-118.583333,36.133333],[-119.166667,36.133333],[-119.5,35.633333],[-120.116667,35.75],[-120.85,35.533333],[-123.25,34.5],[-124.2,36.0],[-125.833333,35.5],[-126.933333,36.461944],[-126.615833,38.580556],[-127.0,40.0],[-126.9,40.983333]]],[[[-126.9,40.983333],[-125.333333,40.216667],[-123.833333,40.216667],[-123.533333,40.3875],[-123.533333,41.333333],[-123.0,41.333333],[-122.416667,41.333333],[-121.25,41.0],[-119.5,41.0],[-117.366667,39.933333],[-117.266667,38.083333],[-117.094722,37.883333],[-117.094722,37.55],[-117.075833,37.441667],[-117.008333,37.366667],[-117.333333,37.2],[-118.583333,37.2],[-118.583333,36.133333],[-119.166667,36.133333],[-119.5,35.633333],[-120.116667,35.75],[-120.85,35.533333],[-123.25,34.5],[-124.2,36.0],[-125.833333,35.5],[-126.933333,36.461944],[-126.615833,38.580556],[-127.0,40.0],[-126.9,40.983333]]]]}},{"type":"Feature","properties":{"id":"ZOB","name":"CLEVELAND","strata":["LOW","HIGH"]},"geometry":{"type":"MultiPolygon","coordinates":[[[[-85.0,43.5],[-84.963611,43.586667],[-82.169444,43.855278],[-82.125,43.688889],[-82.116667,43.6],[-82.355556,43.133333],[-82.416667,43.011389],[-82.404167,42.954167],[-82.461111,42.911111],[-82.466667,42.870833],[-82.408333,42.866667],[-82.272222,42.853333],[-81.970833,42.829167],[-81.847222,42.811111],[-81.827778,42.808333],[-81.220833,42.741667],[-80.895833,42.779167],[-80.266667,42.813889],[-79.844444,42.836111],[-79.75,42.85],[-79.3375,42.908333],[-79.2,42.929167],[-79.058333,42.95],[-79.024444,43.191667],[-78.75,43.433333],[-78.75,43.6],[-78.677778,43.633333],[-78.35,43.633333],[-77.941944,43.634167],[-77.176667,43.632222],[-76.796667,43.631111],[-76.780556,43.4],[-76.778333,43.354444],[-76.775,43.329167],[-76.763889,43.066667],[-76.733333,43.016667],[-76.666667,42.883333],[-76.697222,42.727778],[-76.802778,42.608333],[-77.236111,42.175],[-77.541667,41.677778],[-77.85,41.255556],[-78.127778,40.858333],[-77.879167,40.55],[-77.840278,39.855556],[-77.933333,39.85],[-79.543056,39.370833],[-79.894444,39.173611],[-80.4,39.166667],[-80.5,39.166667],[-81.55,39.75],[-81.633333,40.216667],[-81.783333,40.6],[-83.333333,40.508333],[-83.5,40.558333],[-83.65,40.7375],[-83.745833,40.783333],[-84.7,40.908333],[-84.7,40.958333],[-84.716667,41.283333],[-85.108333,41.383333],[-85.0,41.85],[-85.0,43.5]]],[[[-82.466667,42.870833],[-82.461111,42.911111],[-82.404167,42.954167],[-82.416667,43.011389],[-82.116667,43.6],[-82.169444,43.855278],[-84.963611,43.586667],[-85.0,43.5],[-85.0,42.0],[-84.766667,41.858333],[-84.716667,41.283333],[-84.7,40.958333],[-84.7,40.908333],[-83.745833,40.783333],[-83.65,40.7375],[-83.5,40.558333],[-83.333333,40.508333],[-81.783333,40.6],[-81.633333,40.216667],[-81.55,39.75],[-80.5,39.166667],[-80.4,39.166667],[-79.894444,39.173611],[-79.543056,39.370833],[-77.933333,39.85],[-77.840278,39.855556],[-77.879167,40.55],[-78.127778,40.858333],[-77.85,41.255556],[-77.541667,41.677778],[-77.236111,42.175],[-76.802778,42.608333],[-76.697222,42.727778],[-76.689167,42.768611],[-76.666667,42.883333],[-76.733333,43.016667],[-76.763889,43.066667],[-76.775,43.329167],[-76.778333,43.354444],[-76.780556,43.4],[-76.796667,43.631111],[-77.176667,43.632222],[-77.941944,43.634167],[-78.35,43.633333],[-78.677778,43.633333],[-78.75,43.6],[-78.75,43.433333],[-79.024444,43.191667],[-79.058333,42.95],[-79.2,42.929167],[-79.3375,42.908333],[-79.75,42.85],[-79.844444,42.836111],[-80.266667,42.813889],[-80.895833,42.779167],[-81.220833,42.741667],[-81.827778,42.808333],[-81.847222,42.811111],[-81.970833,42.829167],[-82.272222,42.853333],[-82.408333,42.866667],[-82.466667,42.870833]]]]}},{"type":"Feature","properties":{"id":"ZSE","name":"SEATTLE","strata":["LOW","HIGH"]},"geometry":{"type":"MultiPolygon","coordinates":[[[[-128.0,48.333333],[-125.0,48.5],[-124.75,48.5],[-123.55,48.233333],[-123.258333,48.283333],[-123.116667,48.425],[-123.166667,48.458333],[-123.266667,48.7],[-123.008333,48.766667],[-123.008333,48.833333],[-123.333333,49.0],[-122.916667,49.0],[-122.666667,49.0],[-122.55,49.0],[-122.0,49.0],[-121.5,49.0],[-121.0,49.0],[-120.5,49.0],[-120.0,49.0],[-119.5,49.0],[-119.0,49.0],[-118.5,49.0],[-118.0,49.0],[-117.5,49.0],[-117.0,49.0],[-116.55,49.0],[-116.5,49.0],[-116.0,49.0],[-115.5,49.0],[-115.0,49.0],[-114.666667,49.0],[-115.0,48.416667],[-115.0,45.333333],[-117.75,45.333333],[-118.45,44.85],[-119.283333,43.633333],[-119.0,42.666667],[-119.5,41.0],[-121.25,41.0],[-122.416667,41.333333],[-123.0,41.333333],[-123.533333,41.333333],[-123.533333,40.3875],[-123.833333,40.216667],[-125.333333,40.216667],[-126.9,40.983333],[-126.5,45.0],[-128.0,48.333333]]],[[[-128.0,48.333333],[-125.0,48.5],[-124.75,48.5],[-123.55,48.233333],[-123.258333,48.283333],[-123.116667,48.425],[-123.166667,48.458333],[-123.266667,48.7],[-123.008333,48.766667],[-123.008333,48.833333],[-123.333333,49.0],[-123.0,49.0],[-122.583333,49.0],[-122.533333,49.0],[-122.0,49.0],[-121.5,49.0],[-121.0,49.0],[-120.5,49.0],[-120.0,49.0],[-119.5,49.0],[-119.0,49.0],[-118.5,49.0],[-118.0,49.0],[-117.5,49.0],[-117.0,49.0],[-116.5,49.0],[-116.0,49.0],[-115.5,49.0],[-115.0,49.0],[-114.666667,49.0],[-115.0,48.416667],[-115.0,45.333333],[-117.75,45.333333],[-118.45,44.85],[-119.283333,43.633333],[-119.0,42.666667],[-119.5,41.0],[-121.25,41.0],[-122.416667,41.333333],[-123.0,41.333333],[-123.533333,41.333333],[-123.533333,40.3875],[-123.833333,40.216667],[-125.333333,40.216667],[-126.9,40.983333],[-126.5,45.0],[-128.0,48.333333]]]]}},{"type":"Feature","properties":{"id":"ZSU","name":"SAN JUAN","strata":["UNLIMITED"]},"geometry":{"type":"MultiPolygon","coordinates":[[[[-67.650417,21.239111],[-66.745039,22.000581],[-65.134722,22.097222],[-64.0,22.0],[-61.9,20.0],[-61.5,18.0],[-62.0,18.0],[-63.0,17.366667],[-63.0,15.333333],[-63.25,15.0],[-65.0,15.0],[-67.066667,15.683333],[-68.0,16.0],[-68.0,19.0],[-69.15,19.65],[-67.650417,21.239111]]]]}},{"type":"Feature","properties":{"id":"ZTL","name":"ATLANTA","strata":["LOW","HIGH"]},"geometry":{"type":"MultiPolygon","coordinates":[[[[-85.4,36.183333],[-80.745833,37.304167],[-80.633333,37.331944],[-79.95,36.154167],[-79.744444,36.088889],[-79.804167,35.383333],[-80.0,35.108333],[-80.147222,34.855556],[-80.468889,34.7475],[-81.333333,34.394444],[-81.574444,34.293611],[-81.804444,33.985278],[-81.85,33.888889],[-81.841389,32.900278],[-81.933333,32.5625],[-82.2,32.291667],[-82.645833,32.447222],[-83.495833,32.125],[-83.8,32.091667],[-86.95,31.491667],[-87.4,31.280556],[-87.816667,31.520833],[-88.325,31.516667],[-88.347222,32.330556],[-87.85,32.697222],[-87.986111,33.043056],[-87.633333,33.316667],[-87.55,34.016667],[-87.25,34.1],[-86.713333,34.1],[-86.175,34.3875],[-86.075,34.636111],[-85.930556,34.811111],[-85.483333,34.85],[-85.233333,35.416667],[-85.4,36.183333]]],[[[-85.4,36.183333],[-80.745833,37.304167],[-80.633333,37.331944],[-79.95,36.154167],[-79.744444,36.088889],[-79.804167,35.383333],[-80.0,35.108333],[-80.147222,34.855556],[-80.468889,34.7475],[-81.333333,34.394444],[-81.574444,34.293611],[-81.804444,33.985278],[-81.85,33.888889],[-81.841389,32.900278],[-81.933333,32.5625],[-82.333333,32.166667],[-83.1125,31.683333],[-84.1,31.683333],[-85.308333,31.533333],[-85.583333,31.7625],[-86.95,31.491667],[-87.4,31.280556],[-87.816667,31.520833],[-88.325,31.516667],[-88.347222,32.330556],[-87.85,32.697222],[-87.986111,33.043056],[-87.633333,33.316667],[-87.55,34.016667],[-87.25,34.1],[-87.0,34.366667],[-87.0,35.333333],[-86.0,35.516667],[-85.283333,35.65],[-85.4,36.183333]]]]}},{"type":"Feature","properties":{"id":"ZWY","name":"NEW YORK OCEANIC FIR","strata":["UNLIMITED"]},"geometry":{"type":"MultiPolygon","coordinates":[[[[-67.0,41.866667],[-40.0,44.5],[-40.0,30.0],[-60.0,43.6],[-40.0,27.0],[-56.051667,44.446667],[-40.0,22.3],[-53.0,45.0],[-45.0,18.0],[-51.0,45.0],[-61.5,18.0],[-40.0,45.0],[-61.9,20.0],[-40.0,30.0],[-64.0,22.0],[-40.0,27.0],[-65.134722,22.097222],[-40.0,22.3],[-45.0,18.0],[-66.745039,22.000581],[-61.5,18.0],[-67.650417,21.239111],[-61.9,20.0],[-68.492417,25.0],[-64.0,22.0],[-69.116667,25.0],[-65.134722,22.097222],[-73.2,25.0],[-66.745039,22.000581],[-74.833333,27.833333],[-67.650417,21.239111],[-76.264444,27.833333],[-68.492417,25.0],[-77.0,30.0],[-69.116667,25.0],[-77.0,32.25],[-73.2,25.0],[-76.816667,32.2],[-74.833333,27.833333],[-73.95,34.233333],[-76.264444,27.833333],[-73.573056,34.488056],[-77.0,30.0],[-72.666667,35.093056],[-77.0,32.25],[-72.666667,37.2275],[-76.816667,32.2],[-71.683333,37.516667],[-73.95,34.233333],[-69.95,38.333333],[-73.573056,34.488056],[-68.883333,38.583333],[-72.666667,35.093056],[-67.0,39.0],[-72.666667,37.2275],[-67.0,41.616667],[-71.683333,37.516667],[-61.201667,42.381667],[-69.95,38.333333],[-57.868056,43.072222],[-68.883333,38.583333],[-54.883333,43.623056],[-67.0,39.0],[-50.0,44.5],[-67.0,41.866667]]]]}}]}
